start=new Date('2023-06-03T00:00:00.000Z').valueOf();
sats=[{"COUNTRY_CODE":"US","RA_OF_ASC_NODE":"149.3323","NORAD_CAT_ID":"56013","MEAN_ELEMENT_THEORY":"SGP4","OBJECT_ID":"2023-042AD","SITE":"AFETR","MEAN_MOTION_DDOT":"0.0000000000000","MEAN_ANOMALY":"92.8861","ELEMENT_SET_NO":"999","OBJECT_TYPE":"PAYLOAD","TLE_LINE2":"2 56013  43.0006 149.3323 0001098 267.1856  92.8861 15.04487598 10835","APOAPSIS":"553.842","ARG_OF_PERICENTER":"267.1856","RCS_SIZE":"LARGE","REV_AT_EPOCH":"1083","SEMIMAJOR_AXIS":"6931.216","CENTER_NAME":"EARTH","DECAY_DATE":null,"MEAN_MOTION":"15.04487598","TIME_SYSTEM":"UTC","REF_FRAME":"TEME","OBJECT_NAME":"STARLINK-5941","MEAN_MOTION_DOT":"-0.00000431","EPHEMERIS_TYPE":"0","PERIAPSIS":"552.320","CLASSIFICATION_TYPE":"U","BSTAR":"-0.00001572000000","GP_ID":"233075032","FILE":"3923570","ECCENTRICITY":"0.00010980","TLE_LINE1":"1 56013U 23042AD  23153.69937801 -.00000431  00000-0 -15720-4 0  9992","LAUNCH_DATE":"2023-03-24","INCLINATION":"43.0006","PERIOD":"95.714","EPOCH":"2023-06-02T16:47:06.260064"},{"NORAD_CAT_ID":"56014","RA_OF_ASC_NODE":"137.2408","COUNTRY_CODE":"US","SITE":"AFETR","OBJECT_ID":"2023-042AE","MEAN_ELEMENT_THEORY":"SGP4","MEAN_ANOMALY":"32.0114","MEAN_MOTION_DDOT":"0.0000000000000","OBJECT_TYPE":"PAYLOAD","ELEMENT_SET_NO":"999","APOAPSIS":"487.628","TLE_LINE2":"2 56014  42.9972 137.2408 0001291 258.5304  32.0114 15.26348221 11339","ARG_OF_PERICENTER":"258.5304","RCS_SIZE":"LARGE","DECAY_DATE":null,"CENTER_NAME":"EARTH","SEMIMAJOR_AXIS":"6864.877","REV_AT_EPOCH":"1133","MEAN_MOTION":"15.26348221","EPHEMERIS_TYPE":"0","OBJECT_NAME":"STARLINK-5942","MEAN_MOTION_DOT":"-0.00881681","REF_FRAME":"TEME","TIME_SYSTEM":"UTC","PERIAPSIS":"485.856","BSTAR":"-0.03622300000000","CLASSIFICATION_TYPE":"U","TLE_LINE1":"1 56014U 23042AE  23153.91667824 -.00881681  00000-0 -36223-1 0  9995","ECCENTRICITY":"0.00012910","FILE":"3923382","GP_ID":"233044266","INCLINATION":"42.9972","LAUNCH_DATE":"2023-03-24","EPOCH":"2023-06-02T22:00:00.999936","PERIOD":"94.343"},{"EPOCH":"2023-06-02T22:00:00.999936","PERIOD":"94.372","LAUNCH_DATE":"2023-03-24","INCLINATION":"42.9974","FILE":"3923384","GP_ID":"233044304","TLE_LINE1":"1 56015U 23042AF  23153.91667824 -.00881157  00000-0 -36724-1 0  9990","ECCENTRICITY":"0.00012640","CLASSIFICATION_TYPE":"U","BSTAR":"-0.03672400000000","PERIAPSIS":"487.291","TIME_SYSTEM":"UTC","EPHEMERIS_TYPE":"0","MEAN_MOTION_DOT":"-0.00881157","OBJECT_NAME":"STARLINK-5939","REF_FRAME":"TEME","MEAN_MOTION":"15.25875856","REV_AT_EPOCH":"1133","CENTER_NAME":"EARTH","DECAY_DATE":null,"SEMIMAJOR_AXIS":"6866.294","RCS_SIZE":"LARGE","ARG_OF_PERICENTER":"253.7200","APOAPSIS":"489.027","TLE_LINE2":"2 56015  42.9974 137.2929 0001264 253.7200  15.2340 15.25875856 11334","OBJECT_TYPE":"PAYLOAD","ELEMENT_SET_NO":"999","MEAN_MOTION_DDOT":"0.0000000000000","MEAN_ANOMALY":"15.2340","MEAN_ELEMENT_THEORY":"SGP4","SITE":"AFETR","OBJECT_ID":"2023-042AF","COUNTRY_CODE":"US","NORAD_CAT_ID":"56015","RA_OF_ASC_NODE":"137.2929"},{"GP_ID":"233044730","FILE":"3923384","TLE_LINE1":"1 56016U 23042AG  23153.91667824 -.00878720  00000-0 -34688-1 0  9990","ECCENTRICITY":"0.00013290","LAUNCH_DATE":"2023-03-24","INCLINATION":"42.9970","EPOCH":"2023-06-02T22:00:00.999936","PERIOD":"94.263","MEAN_MOTION":"15.27643548","TIME_SYSTEM":"UTC","EPHEMERIS_TYPE":"0","REF_FRAME":"TEME","MEAN_MOTION_DOT":"-0.00878720","OBJECT_NAME":"STARLINK-5943","PERIAPSIS":"481.949","CLASSIFICATION_TYPE":"U","BSTAR":"-0.03468800000000","APOAPSIS":"483.773","TLE_LINE2":"2 56016  42.9970 137.1012 0001329 260.9529  87.2589 15.27643548 11336","ARG_OF_PERICENTER":"260.9529","RCS_SIZE":"LARGE","REV_AT_EPOCH":"1133","CENTER_NAME":"EARTH","DECAY_DATE":null,"SEMIMAJOR_AXIS":"6860.996","COUNTRY_CODE":"US","NORAD_CAT_ID":"56016","RA_OF_ASC_NODE":"137.1012","MEAN_ELEMENT_THEORY":"SGP4","SITE":"AFETR","OBJECT_ID":"2023-042AG","MEAN_MOTION_DDOT":"0.0000000000000","MEAN_ANOMALY":"87.2589","OBJECT_TYPE":"PAYLOAD","ELEMENT_SET_NO":"999"},{"GP_ID":"233045133","FILE":"3923415","TLE_LINE1":"1 56017U 23042AH  23153.91667824 -.00877863  00000-0 -35574-1 0  9993","ECCENTRICITY":"0.00013040","EPOCH":"2023-06-02T22:00:00.999936","PERIOD":"94.316","LAUNCH_DATE":"2023-03-24","INCLINATION":"42.9971","TIME_SYSTEM":"UTC","EPHEMERIS_TYPE":"0","OBJECT_NAME":"STARLINK-5934","REF_FRAME":"TEME","MEAN_MOTION_DOT":"-0.00877863","MEAN_MOTION":"15.26785957","CLASSIFICATION_TYPE":"U","BSTAR":"-0.03557400000000","PERIAPSIS":"484.535","ARG_OF_PERICENTER":"257.6790","APOAPSIS":"486.325","TLE_LINE2":"2 56017  42.9971 137.1922 0001304 257.6790  52.7659 15.26785957 11339","REV_AT_EPOCH":"1133","DECAY_DATE":null,"CENTER_NAME":"EARTH","SEMIMAJOR_AXIS":"6863.565","RCS_SIZE":"LARGE","MEAN_ELEMENT_THEORY":"SGP4","SITE":"AFETR","OBJECT_ID":"2023-042AH","COUNTRY_CODE":"US","NORAD_CAT_ID":"56017","RA_OF_ASC_NODE":"137.1922","OBJECT_TYPE":"PAYLOAD","ELEMENT_SET_NO":"999","MEAN_MOTION_DDOT":"0.0000000000000","MEAN_ANOMALY":"52.7659"},{"TIME_SYSTEM":"UTC","REF_FRAME":"TEME","OBJECT_NAME":"STARLINK-5945","MEAN_MOTION_DOT":"-0.00879254","EPHEMERIS_TYPE":"0","MEAN_MOTION":"15.27428308","CLASSIFICATION_TYPE":"U","BSTAR":"-0.03494100000000","PERIAPSIS":"482.590","FILE":"3923386","GP_ID":"233044320","ECCENTRICITY":"0.00013340","TLE_LINE1":"1 56018U 23042AJ  23153.91667824 -.00879254  00000-0 -34941-1 0  9997","PERIOD":"94.276","EPOCH":"2023-06-02T22:00:00.999936","LAUNCH_DATE":"2023-03-24","INCLINATION":"42.9971","MEAN_ELEMENT_THEORY":"SGP4","OBJECT_ID":"2023-042AJ","SITE":"AFETR","COUNTRY_CODE":"US","RA_OF_ASC_NODE":"137.1236","NORAD_CAT_ID":"56018","ELEMENT_SET_NO":"999","OBJECT_TYPE":"PAYLOAD","MEAN_MOTION_DDOT":"0.0000000000000","MEAN_ANOMALY":"81.6257","ARG_OF_PERICENTER":"257.2180","TLE_LINE2":"2 56018  42.9971 137.1236 0001334 257.2180  81.6257 15.27428308 11330","APOAPSIS":"484.421","REV_AT_EPOCH":"1133","SEMIMAJOR_AXIS":"6861.640","CENTER_NAME":"EARTH","DECAY_DATE":null,"RCS_SIZE":"LARGE"},{"PERIAPSIS":"485.238","CLASSIFICATION_TYPE":"U","BSTAR":"-0.03596400000000","MEAN_MOTION":"15.26546933","TIME_SYSTEM":"UTC","EPHEMERIS_TYPE":"0","OBJECT_NAME":"STARLINK-5949","REF_FRAME":"TEME","MEAN_MOTION_DOT":"-0.00880782","LAUNCH_DATE":"2023-03-24","INCLINATION":"42.9971","EPOCH":"2023-06-02T22:00:00.999936","PERIOD":"94.331","FILE":"3923386","GP_ID":"233044326","TLE_LINE1":"1 56019U 23042AK  23153.91667824 -.00880782  00000-0 -35964-1 0  9992","ECCENTRICITY":"0.00013230","MEAN_MOTION_DDOT":"0.0000000000000","MEAN_ANOMALY":"44.8637","OBJECT_TYPE":"PAYLOAD","ELEMENT_SET_NO":"999","COUNTRY_CODE":"US","NORAD_CAT_ID":"56019","RA_OF_ASC_NODE":"137.2185","MEAN_ELEMENT_THEORY":"SGP4","SITE":"AFETR","OBJECT_ID":"2023-042AK","RCS_SIZE":"LARGE","REV_AT_EPOCH":"1133","DECAY_DATE":null,"CENTER_NAME":"EARTH","SEMIMAJOR_AXIS":"6864.281","APOAPSIS":"487.054","TLE_LINE2":"2 56019  42.9971 137.2185 0001323 254.8062  44.8637 15.26546933 11332","ARG_OF_PERICENTER":"254.8062"},{"APOAPSIS":"484.998","TLE_LINE2":"2 56020  42.9972 137.1448 0001313 261.9490  68.1467 15.27230835 11331","ARG_OF_PERICENTER":"261.9490","RCS_SIZE":"LARGE","CENTER_NAME":"EARTH","DECAY_DATE":null,"SEMIMAJOR_AXIS":"6862.232","REV_AT_EPOCH":"1133","NORAD_CAT_ID":"56020","RA_OF_ASC_NODE":"137.1448","COUNTRY_CODE":"US","SITE":"AFETR","OBJECT_ID":"2023-042AL","MEAN_ELEMENT_THEORY":"SGP4","MEAN_ANOMALY":"68.1467","MEAN_MOTION_DDOT":"0.0000000000000","OBJECT_TYPE":"PAYLOAD","ELEMENT_SET_NO":"999","TLE_LINE1":"1 56020U 23042AL  23153.91667824 -.00879960  00000-0 -35184-1 0  9994","ECCENTRICITY":"0.00013130","FILE":"3923386","GP_ID":"233044329","INCLINATION":"42.9972","LAUNCH_DATE":"2023-03-24","EPOCH":"2023-06-02T22:00:00.999936","PERIOD":"94.288","MEAN_MOTION":"15.27230835","EPHEMERIS_TYPE":"0","MEAN_MOTION_DOT":"-0.00879960","REF_FRAME":"TEME","OBJECT_NAME":"STARLINK-5912","TIME_SYSTEM":"UTC","PERIAPSIS":"483.196","BSTAR":"-0.03518400000000","CLASSIFICATION_TYPE":"U"},{"INCLINATION":"42.9970","LAUNCH_DATE":"2023-03-24","PERIOD":"94.303","EPOCH":"2023-06-02T22:00:00.999936","ECCENTRICITY":"0.00013100","TLE_LINE1":"1 56021U 23042AM  23153.91667824 -.00877985  00000-0 -35363-1 0  9999","FILE":"3923386","GP_ID":"233044757","PERIAPSIS":"483.933","BSTAR":"-0.03536300000000","CLASSIFICATION_TYPE":"U","MEAN_MOTION":"15.26985416","MEAN_MOTION_DOT":"-0.00877985","REF_FRAME":"TEME","OBJECT_NAME":"STARLINK-5907","EPHEMERIS_TYPE":"0","TIME_SYSTEM":"UTC","RCS_SIZE":"LARGE","SEMIMAJOR_AXIS":"6862.967","DECAY_DATE":null,"CENTER_NAME":"EARTH","REV_AT_EPOCH":"1133","TLE_LINE2":"2 56021  42.9970 137.1707 0001310 258.6892  60.7208 15.26985416 11336","APOAPSIS":"485.731","ARG_OF_PERICENTER":"258.6892","MEAN_ANOMALY":"60.7208","MEAN_MOTION_DDOT":"0.0000000000000","ELEMENT_SET_NO":"999","OBJECT_TYPE":"PAYLOAD","RA_OF_ASC_NODE":"137.1707","NORAD_CAT_ID":"56021","COUNTRY_CODE":"US","OBJECT_ID":"2023-042AM","SITE":"AFETR","MEAN_ELEMENT_THEORY":"SGP4"},{"TLE_LINE2":"2 56022  42.9976 137.0090 0001315 265.1426 121.6213 15.28557286  1309","APOAPSIS":"481.028","ARG_OF_PERICENTER":"265.1426","RCS_SIZE":"LARGE","SEMIMAJOR_AXIS":"6858.261","CENTER_NAME":"EARTH","DECAY_DATE":null,"REV_AT_EPOCH":"130","RA_OF_ASC_NODE":"137.0090","NORAD_CAT_ID":"56022","COUNTRY_CODE":"US","OBJECT_ID":"2023-042AN","SITE":"AFETR","MEAN_ELEMENT_THEORY":"SGP4","MEAN_ANOMALY":"121.6213","MEAN_MOTION_DDOT":"0.0000000000000","ELEMENT_SET_NO":"999","OBJECT_TYPE":"PAYLOAD","ECCENTRICITY":"0.00013150","TLE_LINE1":"1 56022U 23042AN  23153.91667824 -.00879074  00000-0 -33740-1 0  9998","GP_ID":"233073784","FILE":"3923570","INCLINATION":"42.9976","LAUNCH_DATE":"2023-03-24","PERIOD":"94.206","EPOCH":"2023-06-02T22:00:00.999936","MEAN_MOTION":"15.28557286","MEAN_MOTION_DOT":"-0.00879074","REF_FRAME":"TEME","OBJECT_NAME":"STARLINK-5783","EPHEMERIS_TYPE":"0","TIME_SYSTEM":"UTC","PERIAPSIS":"479.224","BSTAR":"-0.03374000000000","CLASSIFICATION_TYPE":"U"}];
